[{"OBJECT_NAME":"STARLINK-35612","OBJECT_ID":"2025-237Q","EPOCH":"2026-03-09T22:09:52.382880","MEAN_MOTION":15.30214199,"ECCENTRICITY":0.00011536,"INCLINATION":53.1611,"RA_OF_ASC_NODE":38.7325,"ARG_OF_PERICENTER":90.1189,"MEAN_ANOMALY":269.9944,"EPHEMERIS_TYPE":0,"CLASSIFICATION_TYPE":"U","NORAD_CAT_ID":66128,"ELEMENT_SET_NO":999,"REV_AT_EPOCH":2264,"BSTAR":0.001226028,"MEAN_MOTION_DOT":0.00036145,"MEAN_MOTION_DDOT":0},{"OBJECT_NAME":"BREEZE-M DEB","OBJECT_ID":"2006-006G","EPOCH":"2026-03-08T12:12:35.572320","MEAN_MOTION":5.26370539,"ECCENTRICITY":0.51047317,"INCLINATION":51.5368,"RA_OF_ASC_NODE":199.369,"ARG_OF_PERICENTER":21.9265,"MEAN_ANOMALY":353.7513,"EPHEMERIS_TYPE":0,"CLASSIFICATION_TYPE":"U","NORAD_CAT_ID":32029,"ELEMENT_SET_NO":999,"REV_AT_EPOCH":36302,"BSTAR":0.00040551446,"MEAN_MOTION_DOT":3.54e-6,"MEAN_MOTION_DDOT":0}]
